METEOSAT 5 (MOP 2)      
1 21140U 91015B   07359.30076334 -.00000056  00000-0  10000-3 0  1565
2 21140   9.7011  54.6354 0007215 132.7592 227.2416  0.98451534 63764
METEOSAT 6              
1 22912U 93073B   07357.62464233 -.00000017  00000-0  10000-3 0  3098
2 22912   7.0739  66.1732 0002604 226.3112  91.5041  1.00274438 50035
GMS 5                   
1 23522U 95011B   07359.31389409  .00000095  00000-0  10000-3 0  5827
2 23522   6.1961  69.0929 0004842 296.7959  62.9745  0.99404047 46571
GOES 10                 
1 24786U 97019A   07359.10567656 -.00000282  00000-0  10000-3 0  2106
2 24786   2.2660  81.6481 0005721 193.9787 156.1342  1.00268641 39082
ORBVIEW 2 (SEASTAR)     
1 24883U 97037A   07359.83466003  .00000001  00000-0  10033-4 0  1304
2 24883  98.2903 111.2051 0002535  84.6434 275.5068 14.59915345553746
METEOSAT-7              
1 24932U 97049B   07358.64781801  .00000070  00000-0  10000-3 0  3127
2 24932   3.8454  76.1468 0001173 235.1072  71.8880  1.00273372 37760
NOAA 15                 
1 25338U 98030A   07359.97505434 -.00000068  00000-0 -10742-4 0  2876
2 25338  98.5432 351.3745 0010460 185.1723 174.9348 14.24678216499997
GOES 11                 
1 26352U 00022A   07359.52920282  .00000092  00000-0  10000-3 0  6123
2 26352   0.0079 274.5151 0005810 357.3065 236.9597  1.00277402 27995
FENGYUN 2B              
1 26382U 00032A   07357.58321485 -.00000315  00000-0  10000-3 0  9943
2 26382   2.9681  79.2400 0005667 174.2835 185.2262  1.00101092 27442
NOAA 16                 
1 26536U 00055A   07359.52340717 -.00000112  00000-0 -35296-4 0  7347
2 26536  99.1398 340.0210 0010556   0.4795 359.6391 14.12462087374112
GOES 12                 
1 26871U 01031A   07359.12381461 -.00000244  00000-0  00000-0 0  3602
2 26871   0.4626 264.8340 0001263 119.7249  37.7290  1.00277156 23592
FENGYUN 1D              
1 27431U 02024B   07359.91417028  .00000115  00000-0  90013-4 0  9344
2 27431  98.5993   2.1631 0015668 142.5435 217.6822 14.09265912288853
NOAA 17                 
1 27453U 02032A   07359.86123029  .00000202  00000-0  10673-3 0  7300
2 27453  98.5602  64.3560 0010908 254.1888 105.8081 14.23936277285991
METEOSAT-8              
1 27509U 02040B   07351.09434758 -.00000008  00000-0  10000-3 0  5691
2 27509   0.4520 336.8318 0001809 299.1580 200.0825  1.00275907 19503
METSAT 1                
1 27525U 02043A   07359.70266983 -.00000075  00000-0  10000-3 0  2074
2 27525   0.0515 239.0541 0003013  12.5680 169.1678  1.00270911 19398
INSAT 3A                
1 27714U 03013A   07358.64533734 -.00000253  00000-0  10000-3 0  8989
2 27714   0.0624 257.4164 0006262  16.7946 144.3662  1.00269603 17284
FENGYUN 2C              
1 28451U 04042A   07358.66418131 -.00000329  00000-0  10000-3 0  7833
2 28451   2.1994  75.1841 0000470 344.3304  17.1588  1.00273407 11630
HIMAWARI 6              
1 28622U 05006A   07355.56763877 -.00000266  00000-0  10000-3 0  4286
2 28622   0.0548 186.2799 0002534  72.2796 175.5532  1.00266324 10304
NOAA 18                 
1 28654U 05018A   07359.84228094 -.00000067  00000-0 -13141-4 0  2453
2 28654  98.8511 298.0864 0015253  86.5000 273.7942 14.11121104133884
METEOSAT-9              
1 28912U 05049B   07351.09714936  .00000018  00000-0  10000-3 0  3329
2 28912   0.9326 158.7264 0000432 135.0883 186.0843  1.00273003  7355
MTSAT-2                 
1 28937U 06004A   07353.63542213 -.00000222  00000-0  10000-3 0  3482
2 28937   0.0460  91.6356 0002256 184.9903 184.9694  1.00272025  6769
FORMOSAT 3A             
1 29047U 06011A   07359.54297013  .00000174  00000-0  87164-4 0  5645
2 29047  71.9823  39.5483 0051996 350.3258   9.6829 14.27046651 90742
FORMOSAT 3B             
1 29048U 06011B   07359.43364535  .00000389  00000-0  17471-3 0  5975
2 29048  71.9710 315.8471 0046762 300.0443  59.6041 14.27035435 93201
FORMOSAT 3C             
1 29049U 06011C   07359.80318386  .00000360  00000-0  16364-3 0  5340
2 29049  72.0218 101.1103 0035993   6.0423 354.1126 14.27041555 89033
FORMOSAT 3D             
1 29050U 06011D   07359.92310478  .00001093  00000-0  26646-3 0  8003
2 29050  72.0105 328.8230 0054325 293.3871  66.1465 14.53800943 92861
FORMOSAT 3E             
1 29051U 06011E   07359.55343869  .00000372  00000-0  16522-3 0  5988
2 29051  72.0081  11.5698 0071939 236.9503 122.4706 14.27041227 91589
FORMOSAT 3F             
1 29052U 06011F   07359.67274420  .00000359  00000-0  16273-3 0  6134
2 29052  72.0378  71.5537 0041947 337.5531  22.3753 14.27045702 89907
GOES 13                 
1 29155U 06018A   07359.24238889 -.00000082  00000-0  10000-3 0  3343
2 29155   0.1331 273.7873 0003087 346.8205 174.4409  1.00272445  5846
METOP-A                 
1 29499U 06044A   07359.86492389  .00000025  00000-0  31271-4 0  3753
2 29499  98.6801  56.6148 0000803  89.4780 270.6505 14.21502649 61392
FENGYUN 2D              
1 29640U 06053A   07359.62084920 -.00000193  00000-0  10000-3 0  2766
2 29640   1.6478 265.7035 0000700   4.0403 133.9307  1.00267318  3899
